{
  "norad_id": 55952,
  "name": "STARLINK-5893",
  "history": [
    {
      "epoch": "2026-04-14T10:16:43.675392Z",
      "apogee_km": 574.1808520679315,
      "perigee_km": 569.9155234182135,
      "latitude_deg": -8.188492746816323e-05,
      "longitude_deg": 177.67554128389887,
      "height_km": 574.3623623968317,
      "semi_major_axis_km": 6950.185187743072,
      "eccentricity": 0.00030685,
      "inclination_deg": 70.0003,
      "raan_deg": 174.4624,
      "arg_perigee_deg": 273.0469,
      "mean_anomaly_deg": 87.0338,
      "mean_motion_rev_day": 14.98332491
    },
    {
      "epoch": "2026-04-15T20:00:01.999008Z",
      "apogee_km": 574.2740266469827,
      "perigee_km": 569.7105717491295,
      "latitude_deg": 15.85819106097731,
      "longitude_deg": 32.823707123444215,
      "height_km": 574.3162880800436,
      "semi_major_axis_km": 6950.129299198055,
      "eccentricity": 0.0003283,
      "inclination_deg": 70.0014,
      "raan_deg": 170.9202,
      "arg_perigee_deg": 272.1547,
      "mean_anomaly_deg": 104.7244,
      "mean_motion_rev_day": 14.98350564
    },
    {
      "epoch": "2026-04-16T16:00:01.998720Z",
      "apogee_km": 574.4436167074309,
      "perigee_km": 569.7202479210309,
      "latitude_deg": -10.068445965670557,
      "longitude_deg": -92.31553595997937,
      "height_km": 576.0929955002962,
      "semi_major_axis_km": 6950.218932314231,
      "eccentricity": 0.0003398,
      "inclination_deg": 70.0011,
      "raan_deg": 168.819,
      "arg_perigee_deg": 274.0919,
      "mean_anomaly_deg": 276.489,
      "mean_motion_rev_day": 14.98321579
    },
    {
      "epoch": "2026-04-17T10:23:21.244992Z",
      "apogee_km": 574.3857148992274,
      "perigee_km": 572.7506738375114,
      "latitude_deg": -2.2483626331232367e-06,
      "longitude_deg": 165.48296499139767,
      "height_km": 575.2225915883505,
      "semi_major_axis_km": 6951.705194368369,
      "eccentricity": 0.0001176,
      "inclination_deg": 70.0007,
      "raan_deg": 166.8878,
      "arg_perigee_deg": 340.2489,
      "mean_anomaly_deg": 19.8624,
      "mean_motion_rev_day": 14.97841097
    },
    {
      "epoch": "2026-04-18T10:24:47.498976Z",
      "apogee_km": 574.4431204995908,
      "perigee_km": 569.6862634575673,
      "latitude_deg": 1.0637700788971883e-05,
      "longitude_deg": 161.61274975297985,
      "height_km": 574.4630151051119,
      "semi_major_axis_km": 6950.201691978579,
      "eccentricity": 0.00034221,
      "inclination_deg": 69.9991,
      "raan_deg": 164.3636,
      "arg_perigee_deg": 270.7098,
      "mean_anomaly_deg": 89.3669,
      "mean_motion_rev_day": 14.98327154
    },
    {
      "epoch": "2026-04-19T04:01:54.776640Z",
      "apogee_km": 574.2819296223697,
      "perigee_km": 568.588978859304,
      "latitude_deg": -1.8377689734783963e-05,
      "longitude_deg": -105.24325838142904,
      "height_km": 574.3650056655538,
      "semi_major_axis_km": 6949.572454240836,
      "eccentricity": 0.00040959,
      "inclination_deg": 69.9993,
      "raan_deg": 162.5115,
      "arg_perigee_deg": 259.8646,
      "mean_anomaly_deg": 100.2051,
      "mean_motion_rev_day": 14.98530654
    },
    {
      "epoch": "2026-04-20T12:04:57.191808Z",
      "apogee_km": 574.4351553287743,
      "perigee_km": 569.6684378445225,
      "latitude_deg": 8.963513537614234e-05,
      "longitude_deg": 129.3148410784697,
      "height_km": 574.4732742874894,
      "semi_major_axis_km": 6950.188796586648,
      "eccentricity": 0.00034292,
      "inclination_deg": 69.999,
      "raan_deg": 159.1459,
      "arg_perigee_deg": 270.1517,
      "mean_anomaly_deg": 89.925,
      "mean_motion_rev_day": 14.98331324
    },
    {
      "epoch": "2026-04-21T20:00:01.999008Z",
      "apogee_km": 574.4115014680956,
      "perigee_km": 569.6728692995011,
      "latitude_deg": -26.751560908721594,
      "longitude_deg": -4.632980071991925,
      "height_km": 580.3215409593162,
      "semi_major_axis_km": 6950.179185383798,
      "eccentricity": 0.0003409,
      "inclination_deg": 69.9998,
      "raan_deg": 155.7926,
      "arg_perigee_deg": 271.1264,
      "mean_anomaly_deg": 60.4762,
      "mean_motion_rev_day": 14.98334432
    },
    {
      "epoch": "2026-04-22T20:00:03.000384Z",
      "apogee_km": 574.4836653699367,
      "perigee_km": 569.6421561121151,
      "latitude_deg": -33.64834188311917,
      "longitude_deg": -11.572690437275144,
      "height_km": 582.7418214592315,
      "semi_major_axis_km": 6950.199910741026,
      "eccentricity": 0.0003483,
      "inclination_deg": 70.0001,
      "raan_deg": 153.2712,
      "arg_perigee_deg": 270.6361,
      "mean_anomaly_deg": 53.4735,
      "mean_motion_rev_day": 14.9832773
    },
    {
      "epoch": "2026-04-23T12:10:58.164096Z",
      "apogee_km": 574.4880718756003,
      "perigee_km": 569.6336366822998,
      "latitude_deg": -1.7326979555758653e-05,
      "longitude_deg": 117.27519123399003,
      "height_km": 574.7488801562064,
      "semi_major_axis_km": 6950.197854278949,
      "eccentricity": 0.00034923,
      "inclination_deg": 69.9988,
      "raan_deg": 151.5714,
      "arg_perigee_deg": 263.8468,
      "mean_anomaly_deg": 96.2293,
      "mean_motion_rev_day": 14.98328395
    },
    {
      "epoch": "2026-04-24T20:00:01.999008Z",
      "apogee_km": 574.5594719816118,
      "perigee_km": 569.583122840665,
      "latitude_deg": -47.1800112239169,
      "longitude_deg": -27.633366059791975,
      "height_km": 587.8047893429981,
      "semi_major_axis_km": 6950.208297411138,
      "eccentricity": 0.000358,
      "inclination_deg": 70.0007,
      "raan_deg": 148.2287,
      "arg_perigee_deg": 269.9958,
      "mean_anomaly_deg": 38.9422,
      "mean_motion_rev_day": 14.98325018
    },
    {
      "epoch": "2026-04-25T09:02:36.948192Z",
      "apogee_km": 574.2627471623982,
      "perigee_km": 569.7020788035989,
      "latitude_deg": -3.674388161500409e-05,
      "longitude_deg": 157.8049155104348,
      "height_km": 575.0090805835165,
      "semi_major_axis_km": 6950.119412982998,
      "eccentricity": 0.0003281,
      "inclination_deg": 69.999,
      "raan_deg": 146.8551,
      "arg_perigee_deg": 254.7707,
      "mean_anomaly_deg": 105.3089,
      "mean_motion_rev_day": 14.98353761
    },
    {
      "epoch": "2026-04-26T18:41:33.957600Z",
      "apogee_km": 574.6867306672775,
      "perigee_km": 569.3569318659329,
      "latitude_deg": 3.171918573249738e-05,
      "longitude_deg": 8.151479214014662,
      "height_km": 574.133188877997,
      "semi_major_axis_km": 6950.1588312666045,
      "eccentricity": 0.00038343,
      "inclination_deg": 69.9973,
      "raan_deg": 143.3211,
      "arg_perigee_deg": 276.8235,
      "mean_anomaly_deg": 83.2488,
      "mean_motion_rev_day": 14.98341014
    },
    {
      "epoch": "2026-04-27T16:00:01.998720Z",
      "apogee_km": 574.4301305161953,
      "perigee_km": 569.5386350869794,
      "latitude_deg": 63.73713198010233,
      "longitude_deg": 178.23219671858132,
      "height_km": 584.6983402276159,
      "semi_major_axis_km": 6950.121382801587,
      "eccentricity": 0.0003519,
      "inclination_deg": 69.9998,
      "raan_deg": 141.085,
      "arg_perigee_deg": 272.0716,
      "mean_anomaly_deg": 195.4964,
      "mean_motion_rev_day": 14.98353124
    },
    {
      "epoch": "2026-04-28T12:21:04.749120Z",
      "apogee_km": 574.6279098864325,
      "perigee_km": 569.5208945480827,
      "latitude_deg": 2.237837096432147e-05,
      "longitude_deg": 97.18692315411704,
      "height_km": 574.3438940610545,
      "semi_major_axis_km": 6950.211402217257,
      "eccentricity": 0.0003674,
      "inclination_deg": 69.9979,
      "raan_deg": 138.9457,
      "arg_perigee_deg": 273.5567,
      "mean_anomaly_deg": 86.5172,
      "mean_motion_rev_day": 14.98324014
    },
    {
      "epoch": "2026-04-29T10:46:57.304704Z",
      "apogee_km": 574.5466534410089,
      "perigee_km": 569.5633657701219,
      "latitude_deg": -2.1648049230252047e-05,
      "longitude_deg": 117.44160673658197,
      "height_km": 574.5129679618996,
      "semi_major_axis_km": 6950.1920096055655,
      "eccentricity": 0.0003585,
      "inclination_deg": 69.9982,
      "raan_deg": 136.5906,
      "arg_perigee_deg": 269.3085,
      "mean_anomaly_deg": 90.7663,
      "mean_motion_rev_day": 14.98330285
    },
    {
      "epoch": "2026-04-30T14:00:01.999872Z",
      "apogee_km": 574.6256047350525,
      "perigee_km": 569.4846866087419,
      "latitude_deg": -4.345579572400521,
      "longitude_deg": 63.617608713303014,
      "height_km": 574.7608618271822,
      "semi_major_axis_km": 6950.1921456718965,
      "eccentricity": 0.00036984,
      "inclination_deg": 69.9989,
      "raan_deg": 133.7303,
      "arg_perigee_deg": 274.1192,
      "mean_anomaly_deg": 81.3582,
      "mean_motion_rev_day": 14.98330241
    }
  ]
}